satname,norad_id,inclination_deg,eccentricity,mean_motion_rev_per_day,perigee_km,apogee_km,l1,l2
STARLINK-1278,45408,53.0504,0.0001377,15.06406684,546.2374548411099,548.1446901922809,1 45408U 20019BA  25259.31025328  .00001044  00000+0  88948-4 0  9999,2 45408  53.0504 229.4393 0001377  93.0654 267.0493 15.06406684303161
STARLINK-1296,45412,53.0493,0.000253,15.06395687,545.4726601641278,548.9768932231345,1 45412U 20019BE  25259.55261332  .00000375  00000+0  44124-4 0  9991,2 45412  53.0493 198.3503 0002530  92.8934 267.2344 15.06395687303617
STARLINK-1298,45413,53.0506,0.0009998,15.41775888,434.05035086645967,447.6856332485777,1 45413U 20019BF  25259.58337963  .00099120  00000+0  22834-2 0  9997,2 45413  53.0506 187.2298 0009998  81.9653 145.2400 15.41775888  5827
STARLINK-1309,45414,53.0518,0.0001397,15.06383391,546.2949842939315,548.2299409037823,1 45414U 20019BG  25259.56736406 -.00001150  00000+0 -58365-4 0  9999,2 45414  53.0518 198.2839 0001397 110.3158 249.7982 15.06383391303603
STARLINK-1316,45415,53.052,0.0001566,15.06401082,546.1237327012386,548.2927508309585,1 45415U 20019BH  25259.52680368  .00000314  00000+0  39988-4 0  9990,2 45415  53.0520 198.4642 0001566  89.8334 270.2834 15.06401082303631
STARLINK-1318,45416,53.0531,0.0001094,15.55127491,401.0403309418871,402.52377723092104,1 45416U 20019BJ  25259.51787180  .00039156  00000+0  57521-3 0  9998,2 45416  53.0531 182.5423 0001094 116.6560 243.4562 15.55127491303847
STARLINK-1286,45417,53.0525,0.0001477,15.06419757,546.1281412020835,548.1738712791275,1 45417U 20019BK  25259.29920042  .00002486  00000+0  18565-3 0  9991,2 45417  53.0525 229.4902 0001477  90.6069 269.5089 15.06419757303437
STARLINK-1308,45419,53.0506,0.0001464,15.06406035,546.1791932732103,548.2069299152445,1 45419U 20019BM  25259.36185612  .00000746  00000+0  68934-4 0  9990,2 45419  53.0506 229.2082 0001464  85.5179 274.5977 15.06406035303196
STARLINK-1329,45531,53.0555,0.0002318,15.06396319,545.6175412852481,548.828138106931,1 45531U 20025A   25259.46322606  .00000562  00000+0  56649-4 0  9995,2 45531  53.0555 168.7522 0002318  82.5377 277.5876 15.06396319298835
STARLINK-1338,45532,53.0562,0.0001751,15.06399517,546.0004094724081,548.4256670558088,1 45532U 20025B   25259.47428423  .00001317  00000+0  10730-3 0  9990,2 45532  53.0562 168.7033 0001751  83.8250 276.2939 15.06399517298834
STARLINK-1350,45535,53.0732,0.0002988,15.30895013,471.09350924580394,475.18783278200226,1 45535U 20025E   25258.93631880  .00009955  00000+0  34046-3 0  9998,2 45535  53.0732 130.6509 0002988 108.9470 251.1854 15.30895013299342
STARLINK-1362,45538,53.0534,0.0001804,15.06389095,545.9956414850312,548.4943193035579,1 45538U 20025H   25259.44013638  .00000910  00000+0  79990-4 0  9993,2 45538  53.0534 168.5739 0001804  82.4836 277.6358 15.06389095298834
STARLINK-1368,45540,53.0545,0.0001796,15.0638807,546.0043227434553,548.4919210792459,1 45540U 20025K   25259.44480542 -.00001012  00000+0 -49091-4 0  9993,2 45540  53.0545 168.8351 0001796  86.3290 273.7905 15.06388070298825
STARLINK-1371,45542,53.0522,0.0001613,15.06398864,546.0979803328619,548.3320989008434,1 45542U 20025M   25259.48165038  .00000933  00000+0  81498-4 0  9995,2 45542  53.0522 168.6701 0001613  90.6414 269.4760 15.06398864298837
STARLINK-1372,45543,53.0547,0.0001687,15.06395394,546.0573660176406,548.3939833840841,1 45543U 20025N   25259.45216714  .00000197  00000+0  32164-4 0  9999,2 45543  53.0547 168.8003 0001687  85.5054 274.6127 15.06395394297925
STARLINK-1373,45544,53.054,0.0002111,15.06396705,545.7597134446978,548.6835998695378,1 45544U 20025P   25259.47061214  .00000284  00000+0  37974-4 0  9996,2 45544  53.0540 168.7211 0002111  82.6664 277.4565 15.06396705298832
STARLINK-1294,45551,53.0515,0.0005151,15.49865433,413.6191360985749,420.6196092136852,1 45551U 20025W   25259.19736451  .00135064  00000+0  23473-2 0  9997,2 45551  53.0515 118.8830 0005151 177.9108 182.1923 15.49865433299515
STARLINK-1323,45553,53.0378,0.0006807,15.87131088,305.7779865051334,314.88366660420525,1 45553U 20025Y   25259.58337963  .00263780  00000+0  96420-3 0  9997,2 45553  53.0378 101.1675 0006807  85.2609  26.2478 15.87131088  5895
STARLINK-1325,45554,53.0613,6.3e-05,15.4584244,428.47500959155605,429.3326967390549,1 45554U 20025Z   25259.30908499  .00059789  00000+0  12120-2 0  9992,2 45554  53.0613 109.9647 0000630 214.1621 145.9345 15.45842440299654
STARLINK-1327,45555,53.0543,0.0001802,15.06403524,545.9528115429966,548.4487032707657,1 45555U 20025AA  25258.97852983  .00011019  00000+0  75743-3 0  9996,2 45555  53.0543 150.9265 0001802  93.7340 266.3855 15.06403524299039
STARLINK-1336,45557,53.0399,0.0008379,15.82040242,319.0554022112674,330.2879690066111,1 45557U 20025AC  25259.58337963  .00163311  00000+0  77084-3 0  9995,2 45557  53.0399 106.5407 0008379 102.7100 203.8240 15.82040242  5774
STARLINK-1342,45558,53.0453,0.0005078,15.91391281,294.9983610397576,301.77904054148075,1 45558U 20025AD  25259.58337963  .00340171  54598-4  10420-2 0  9993,2 45558  53.0453 103.4667 0005078 100.9098  91.0528 15.91391281  5902
STARLINK-1355,45563,53.0302,0.0008865,16.08153211,246.03682668376769,257.7919077578508,1 45563U 20025AJ  25259.84463459  .00672399  24375-3  78234-3 0  9995,2 45563  53.0302  31.1928 0008865 321.0190  39.0203 16.08153211300788
STARLINK-1356,45564,53.0534,0.0001364,15.06420373,546.2045093046963,548.0937273577774,1 45564U 20025AK  25259.11489572  .00008677  00000+0  60036-3 0  9998,2 45564  53.0534 150.3142 0001364  87.1898 272.9247 15.06420373299056
STARLINK-1357,45565,53.0673,0.000887,15.24646689,485.75288817242836,497.94023901424316,1 45565U 20025AL  25259.40094198  .00054176  00000+0  21613-2 0  9999,2 45565  53.0673 140.9715 0008870  95.2650 264.9360 15.24646689299212
STARLINK-1361,45567,53.0535,0.0001837,15.06393826,545.9582904175331,548.5026704298416,1 45567U 20025AN  25259.39873180  .00000874  00000+0  77597-4 0  9995,2 45567  53.0535 149.0407 0001837  81.6132 278.5065 15.06393826299102
STARLINK-1363,45568,53.054,0.0001647,15.0640918,546.0428224297011,548.3240229769399,1 45568U 20025AP  25259.41349177  .00001812  00000+0  14051-3 0  9991,2 45568  53.0540 149.2172 0001647  82.3470 277.7706 15.06409180299094
STARLINK-1366,45569,53.055,0.0001271,15.06399949,546.3315024243557,548.0919260675173,1 45569U 20025AQ  25259.40240645  .00000674  00000+0  64146-4 0  9997,2 45569  53.0550 149.0220 0001271  87.1089 273.0045 15.06399949299096
STARLINK-1376,45570,53.0523,0.000146,15.06406064,546.1818745379833,548.2040708900158,1 45570U 20025AR  25259.39503148  .00001842  00000+0  14251-3 0  9996,2 45570  53.0523 149.0533 0001460  79.3741 280.7413 15.06406064299094
STARLINK-1320,45572,53.0606,0.0008577,15.34532038,456.443771487091,468.1778756836693,1 45572U 20025AT  25258.86335799  .00094584  00000+0  27610-2 0  9991,2 45572  53.0606 105.1551 0008577 149.8179 210.3318 15.34532038299685
STARLINK-1321,45573,53.0533,0.0001638,15.06395192,546.0919192974679,548.3606683125181,1 45573U 20025AU  25259.38120932  .00001295  00000+0  10584-3 0  9991,2 45573  53.0533 139.1184 0001638  85.2116 274.9060 15.06395192298933
STARLINK-1328,45576,53.0561,0.0002179,15.53233379,405.8143001892031,408.771390515808,1 45576U 20025AX  25259.36770838  .00100692  00000+0  15608-2 0  9990,2 45576  53.0561 132.8477 0002179 144.0121 216.1035 15.53233379299338
STARLINK-1331,45578,53.0539,0.0001805,15.06397387,545.9695395582748,548.4695932787517,1 45578U 20025AZ  25259.35909941 -.00000683  00000+0 -26947-4 0  9991,2 45578  53.0539 139.2187 0001805  82.5013 277.6181 15.06397387299247
STARLINK-1333,45580,53.0519,0.0001336,15.06401742,546.280993110262,548.1314448183693,1 45580U 20025BB  25259.43189887  .00002069  00000+0  15772-3 0  9993,2 45580  53.0519 148.8939 0001336  86.9001 273.2141 15.06401742299107
STARLINK-1335,45581,53.054,0.0001393,15.06389703,546.2784114897167,548.2078223902963,1 45581U 20025BC  25259.37017482 -.00000083  00000+0  13304-4 0  9993,2 45581  53.0540 139.1673 0001393  81.6653 278.4494 15.06389703299232
STARLINK-1337,45582,53.0542,0.0001588,15.06405428,546.0951792407996,548.2946646592109,1 45582U 20025BD  25259.39227271  .00001748  00000+0  13618-3 0  9990,2 45582  53.0542 139.0713 0001588  83.1054 277.0116 15.06405428299236
STARLINK-1347,45586,53.0603,0.0008,15.23939441,488.4742480366949,499.4696223329902,1 45586U 20025BH  25259.37731802  .00053381  00000+0  21758-2 0  9995,2 45586  53.0603 131.3681 0008000 101.3775 258.8121 15.23939441299336
STARLINK-1349,45587,53.036,0.0006003,16.22898951,207.7367792465393,215.64852872911706,1 45587U 20025BJ  25259.77409377  .02558958  11896-4  10195-2 0  9994,2 45587  53.0360  81.6381 0006003 287.2024  72.8358 16.22898951300073
STARLINK-1360,45588,53.0491,0.0001427,15.65926267,369.61310089720337,371.53918362800596,1 45588U 20025BK  25259.45711583  .00066160  00000+0  63744-3 0  9991,2 45588  53.0491  63.5394 0001427 324.7487  35.3433 15.65926267300309
STARLINK-1364,45589,53.0551,0.0001408,15.06399537,546.2378876901994,548.1880662437134,1 45589U 20025BL  25259.39595948  .00000000  00000+0  18893-4 0  9997,2 45589  53.0551 139.0570 0001408  86.5490 273.5660 15.06399537299234
STARLINK-1365,45590,53.0552,0.0001692,15.06384717,546.0866216267041,548.4301754295666,1 45590U 20025BM  25259.47797867 -.00000419  00000+0 -92084-5 0  9993,2 45590  53.0552 168.6859 0001692  89.5473 270.5710 15.06384717298847
STARLINK-1443,45660,53.054,0.0002084,15.06396456,545.7791749060543,548.6656647122309,1 45660U 20035D   25259.33053410 -.00000685  00000+0 -27066-4 0  9998,2 45660  53.0540 129.3490 0002084  92.6898 267.4330 15.06396456292456
STARLINK-1446,45663,53.0293,0.0007391,15.28746472,474.4899576296166,484.62700308868443,1 45663U 20035G   25258.89302257  .00064705  00000+0  22756-2 0  9997,2 45663  53.0293 102.2702 0007391 108.2744 251.9060 15.28746472292796
